COSMOS 2564 (761)       
1 54377U 22161A   25333.80577828  .00000087  00000+0  00000+0 0  9992
2 54377  64.7376 199.3286 0008760 206.7904 153.2521  2.13101983 23381
COSMOS 2569 (703K)      
1 57517U 23114A   25333.81921370  .00000000  00000+0  00000+0 0  9991
2 57517  65.1873  79.3502 0010025 286.9985  72.8960  2.13103859 18012
COSMOS 2584 (704K)      
1 63130U 25042A   25330.42095954  .00000018  00000+0  00000+0 0  9994
2 63130  64.9668  79.7019 0007521 212.3772 147.5850  2.13103062  5728
COSMOS 2596 (708K)      
1 65590U 25206B   25334.08977572 -.00000021  00000+0  00000+0 0  9994
2 65590  64.7512 321.9152 0014079 304.6953 108.4937  2.13100321  1664
