{
  "type": "FeatureCollection",
  "features": [
    {
      "type": "Feature",
      "properties": {
        "OBJECT_NAME": "COSMOS 2564 (761)",
        "OBJECT_ID": "2022-161A",
        "EPOCH": "2025-11-29T19:20:19.243392",
        "MEAN_MOTION": 2.13101983,
        "ECCENTRICITY": 0.000876,
        "INCLINATION": 64.7376,
        "RA_OF_ASC_NODE": 199.3286,
        "ARG_OF_PERICENTER": 206.7904,
        "MEAN_ANOMALY": 153.2521,
        "EPHEMERIS_TYPE": 0,
        "CLASSIFICATION_TYPE": "U",
        "NORAD_CAT_ID": 54377,
        "ELEMENT_SET_NO": 999,
        "REV_AT_EPOCH": 2338,
        "BSTAR": 0,
        "MEAN_MOTION_DOT": 8.7e-07,
        "MEAN_MOTION_DDOT": 0,
        "norad_id": 54377,
        "name": "COSMOS 2564 (761)",
        "group": "glo-ops",
        "longitude_deg": NaN,
        "latitude_deg": NaN,
        "alt_km": NaN,
        "orbit_class": "HEO",
        "timestamp": "2025-11-30T09:33:02.532240+00:00"
      },
      "geometry": {
        "type": "Point",
        "coordinates": [
          NaN,
          NaN
        ]
      }
    },
    {
      "type": "Feature",
      "properties": {
        "OBJECT_NAME": "COSMOS 2569 (703K)",
        "OBJECT_ID": "2023-114A",
        "EPOCH": "2025-11-29T19:39:40.063680",
        "MEAN_MOTION": 2.13103859,
        "ECCENTRICITY": 0.0010025,
        "INCLINATION": 65.1873,
        "RA_OF_ASC_NODE": 79.3502,
        "ARG_OF_PERICENTER": 286.9985,
        "MEAN_ANOMALY": 72.896,
        "EPHEMERIS_TYPE": 0,
        "CLASSIFICATION_TYPE": "U",
        "NORAD_CAT_ID": 57517,
        "ELEMENT_SET_NO": 999,
        "REV_AT_EPOCH": 1801,
        "BSTAR": 0,
        "MEAN_MOTION_DOT": 0,
        "MEAN_MOTION_DDOT": 0,
        "norad_id": 57517,
        "name": "COSMOS 2569 (703K)",
        "group": "glo-ops",
        "longitude_deg": NaN,
        "latitude_deg": NaN,
        "alt_km": NaN,
        "orbit_class": "HEO",
        "timestamp": "2025-11-30T09:33:02.543619+00:00"
      },
      "geometry": {
        "type": "Point",
        "coordinates": [
          NaN,
          NaN
        ]
      }
    },
    {
      "type": "Feature",
      "properties": {
        "OBJECT_NAME": "COSMOS 2584 (704K)",
        "OBJECT_ID": "2025-042A",
        "EPOCH": "2025-11-26T10:06:10.904256",
        "MEAN_MOTION": 2.13103062,
        "ECCENTRICITY": 0.00075218,
        "INCLINATION": 64.9668,
        "RA_OF_ASC_NODE": 79.7019,
        "ARG_OF_PERICENTER": 212.3772,
        "MEAN_ANOMALY": 147.585,
        "EPHEMERIS_TYPE": 0,
        "CLASSIFICATION_TYPE": "U",
        "NORAD_CAT_ID": 63130,
        "ELEMENT_SET_NO": 999,
        "REV_AT_EPOCH": 572,
        "BSTAR": 0,
        "MEAN_MOTION_DOT": 1.8e-07,
        "MEAN_MOTION_DDOT": 0,
        "norad_id": 63130,
        "name": "COSMOS 2584 (704K)",
        "group": "glo-ops",
        "longitude_deg": NaN,
        "latitude_deg": NaN,
        "alt_km": NaN,
        "orbit_class": "HEO",
        "timestamp": "2025-11-30T09:33:02.571742+00:00"
      },
      "geometry": {
        "type": "Point",
        "coordinates": [
          NaN,
          NaN
        ]
      }
    },
    {
      "type": "Feature",
      "properties": {
        "OBJECT_NAME": "COSMOS 2596 (708K)",
        "OBJECT_ID": "2025-206B",
        "EPOCH": "2025-11-30T02:09:16.622208",
        "MEAN_MOTION": 2.13100321,
        "ECCENTRICITY": 0.0014079,
        "INCLINATION": 64.7512,
        "RA_OF_ASC_NODE": 321.9152,
        "ARG_OF_PERICENTER": 304.6953,
        "MEAN_ANOMALY": 108.4937,
        "EPHEMERIS_TYPE": 0,
        "CLASSIFICATION_TYPE": "U",
        "NORAD_CAT_ID": 65590,
        "ELEMENT_SET_NO": 999,
        "REV_AT_EPOCH": 166,
        "BSTAR": 0,
        "MEAN_MOTION_DOT": -2.1e-07,
        "MEAN_MOTION_DDOT": 0,
        "norad_id": 65590,
        "name": "COSMOS 2596 (708K)",
        "group": "glo-ops",
        "longitude_deg": NaN,
        "latitude_deg": NaN,
        "alt_km": NaN,
        "orbit_class": "HEO",
        "timestamp": "2025-11-30T09:33:02.587315+00:00"
      },
      "geometry": {
        "type": "Point",
        "coordinates": [
          NaN,
          NaN
        ]
      }
    }
  ]
}